SL-16 R/B               
1 25400U 98043G   26008.11006448  .00000074  00000+0  49768-4 0  9993
2 25400  98.8162 321.0807 0009673 184.1681 175.9420 14.26033044430352
SL-16 R/B               
1 25407U 98045B   26008.18172145 -.00000194  00000+0 -73957-4 0  9999
2 25407  71.0124 308.8197 0005387 130.6303 229.5290 14.16180701418539
ISS (ZARYA)             
1 25544U 98067A   26007.85496262  .00008201  00000+0  15591-3 0  9991
2 25544  51.6332  13.1773 0007624 352.7234   7.3643 15.49160932546906
CZ-4B R/B               
1 25732U 99025C   26008.13523880  .00000041  00000+0  40712-4 0  9992
2 25732  98.6731  53.8200 0037553 157.7107 266.5445 14.18250999379586
OKEAN-O                 
1 25860U 99039A   26008.15363115  .00000770  00000+0  10820-3 0  9999
2 25860  97.9562  68.6223 0001509 112.0350 248.1023 14.80215856425433
SL-16 R/B               
1 25861U 99039B   26008.12340667  .00000609  00000+0  84173-4 0  9998
2 25861  98.0086  67.2715 0016162  93.8696 266.4364 14.81632503427894
DELTA 2 R/B             
1 25876U 99041E   26007.77022218  .00002485  00000+0  43761-3 0  9997
2 25876  51.7596 184.5280 0503941 168.4905 192.8071 14.11509110354425
HELIOS 1B               
1 25977U 99064A   26008.17525882  .00001664  00000+0  19044-3 0  9999
2 25977  98.1746 268.6263 0000307  91.9079 268.2171 14.87413836676264
TERRA                   
1 25994U 99068A   26008.17252639  .00000463  00000+0  10353-3 0  9999
2 25994  97.9710  63.8820 0002804  40.0419  25.6529 14.60937476386242
SL-16 R/B               
1 26070U 00006B   26008.04008679 -.00000079  00000+0 -15591-4 0  9993
2 26070  71.0013 225.3592 0018975 273.4780  86.4173 14.15815787339975
TITAN 4B R/B            
1 26474U 00047B   26008.12558182  .00003003  00000+0  19495-3 0  9998
2 26474  67.9875 210.7395 0037283 111.8799 248.6321 15.09003275383779
ENVISAT                 
1 27386U 02009A   26005.89559443  .00000193  00000+0  76295-4 0  9992
2 27386  98.3632 321.0279 0001078  90.4272 337.3404 14.39010190250147
